AMGU-1 (AMURSAT)        
1 44394U 19038J   21356.50702254  .00004879  00000+0  26731-3 0  9996
2 44394  97.6087 320.5624 0022179  28.0491 332.1948 15.14475534136234
DOT-1                   
1 44399U 19038P   21356.46241444  .00004550  00000+0  25766-3 0  9998
2 44399  97.6174 319.7538 0024965  32.2673 328.0079 15.13274090136168
SOKRAT                  
1 44404U 19038U   21355.88635327  .00005881  00000+0  32267-3 0  9999
2 44404  97.6135 319.6577 0022296  32.2150 328.0438 15.14334229136126
LUCKY-7                 
1 44406U 19038W   21356.11646197  .00004891  00000+0  27429-3 0  9999
2 44406  97.6166 319.6881 0024631  26.1669 334.0801 15.13594076136120
D-STAR ONE (EXOCONNECT) 
1 44410U 19038AA  21355.86311433  .00009615  00000+0  50748-3 0  9996
2 44410  97.6098 320.1058 0021707  29.0094 331.2339 15.15544955136169
NARSSCUBE-2             
1 44415U 19022E   21355.90209789  .00004841  00000+0  16579-3 0  9999
2 44415  51.6409 255.2522 0011724 134.3793 225.8151 15.32017844132873
KRAKSAT                 
1 44427U 98067QM  21356.43719199  .00301669  46105-4  82531-3 0  9998
2 44427  51.6355  52.7607 0004696 355.8647  98.8642 15.93541517141114
NARSSCUBE-1             
1 44792U 98067QX  21354.68492097  .10095484  12438-4  82251-3 0  9990
2 44792  51.6151  67.9911 0004550 332.9451  27.1338 16.39024930118989
DUCHIFAT-3              
1 44854U 19089C   21356.28766701  .00001753  00000+0  14495-3 0  9997
2 44854  36.9656  69.5476 0007734 229.4683 130.5416 14.99878870111312
OPS-SAT                 
1 44878U 19092F   21355.73692650  .00005666  00000+0  28703-3 0  9991
2 44878  97.4739 176.6459 0012222 236.0616 123.9456 15.17313361111221
FLORIPASAT-1            
1 44885U 19093G   21356.47479610  .00000836  00000+0  11050-3 0  9992
2 44885  97.9142  74.0082 0015538  52.7838 307.4828 14.82515589108626
HUSKYSAT-1 (HO-107)     
1 45119U 19071J   21355.84248456  .00010235  00000+0  28017-3 0  9996
2 45119  51.6390 207.0605 0010033 243.3719 116.6238 15.37889473105987
G-SAT                   
1 45597U 98067RK  21356.48299056  .00065509  00000+0  59065-3 0  9992
2 45597  51.6373 100.7381 0003943 307.5504  52.5134 15.67535606 93994
QUETZAL-1               
1 45598U 98067RL  21356.45199473  .00127137  00000+0  81677-3 0  9992
2 45598  51.6361  94.4877 0003369 319.8913  40.1837 15.75318059 94009
BY70-2                  
1 45857U 20042B   21356.46219962  .00002831  00000+0  40176-3 0  9997
2 45857  97.9724  70.2059 0009830 331.9342  28.1466 14.77722720 79302
SALSAT                  
1 46495U 20068K   21355.93218009  .00000350  00000+0  29970-4 0  9990
2 46495  97.7110 292.5002 0016988 152.4453 207.7684 15.03712940 67505
NETSAT-4                
1 46504U 20068U   21355.80368221  .00000630  00000+0  52101-4 0  9992
2 46504  97.7078 291.2845 0010121 196.7622 163.3276 15.02427027 67368
NETSAT-3                
1 46505U 20068V   21355.88134907  .00001293  00000+0  10219-3 0  9992
2 46505  97.7077 291.3054 0009997 200.8376 159.2457 15.02406840 67380
NETSAT-1                
1 46506U 20068W   21355.82580338  .00001570  00000+0  12321-3 0  9994
2 46506  97.7061 291.1987 0009139 214.3389 145.7246 15.02369256 67373
NETSAT-2                
1 46507U 20068X   21355.83251160  .00001948  00000+0  15183-3 0  9992
2 46507  97.7066 291.1994 0008672 224.3323 135.7208 15.02348446 67327
BY70-3                  
1 46839U 20079N   21356.45144804  .00010300  00000+0  29897-3 0  9996
2 46839  97.2229  66.5982 0005165 243.4200 242.9710 15.35677694 63031
SPOC                    
1 46921U 98067RR  21355.62903084  .00039442  00000+0  47131-3 0  9990
2 46921  51.6390 119.0932 0000735  69.4775 290.6297 15.60609927 64028
BOBCAT-1                
1 46922U 98067RS  21356.34742352  .00075161  00000+0  70213-3 0  9995
2 46922  51.6402 109.6770 0000470 315.0816  45.0142 15.66609201 64167
NEUTRON-1               
1 46923U 98067RT  21356.42866817  .00040596  00000+0  48555-3 0  9996
2 46923  51.6397 115.4347 0000818  92.1939 267.9148 15.60572408 64164
1998-067RU              
1 46924U 98067RU  21356.45261970  .00770693  28076-3  15504-2 0  9991
2 46924  51.6250  92.1065 0008085 346.3386  13.7403 15.99045288 64439
DESCENT                 
1 46927U 98067RX  21356.49407163  .00043100  00000+0  51235-3 0  9995
2 46927  51.6400 115.1185 0001190 121.4122 238.6988 15.60705020 64080
UVSQ-SAT                
1 47438U 21006AB  21356.15630337  .00003974  00000+0  22348-3 0  9994
2 47438  97.4642  53.8329 0013030 162.8126 197.3549 15.13778816 50441
SOMP2B                  
1 47445U 21006AJ  21355.72950293  .00003761  00000+0  21290-3 0  9999
2 47445  97.4612  53.2103 0012513 168.0863 192.0667 15.13575860 50370
WARP-01                 
1 47924U 98067SA  21355.75304041  .00055785  00000+0  66872-3 0  9997
2 47924  51.6385 125.1371 0002591  98.4331 261.6956 15.60372373 43943
RSP-01                  
1 47925U 98067SB  21355.85825167  .00046668  00000+0  60771-3 0  9998
2 47925  51.6403 125.8626 0000976 344.1543  15.9419 15.58265230 43928
TAUSAT-1                
1 47926U 98067SC  21356.51304386  .00060773  00000+0  71346-3 0  9991
2 47926  51.6390 120.4697 0001839 343.1889  16.9043 15.60882799 44040
TSURU                   
1 47927U 98067SD  21356.49146217  .00040041  00000+0  53878-3 0  9992
2 47927  51.6401 123.3411 0001145 352.6416   7.4560 15.57458858 44018
STARS-EC                
1 47928U 98067SE  21355.81010769  .00066667  00000+0  77798-3 0  9999
2 47928  51.6391 124.7770 0002873 103.8646 256.2667 15.60998195 43917
MAYA-2                  
1 47929U 98067SF  21355.78126832  .00038801  00000+0  52354-3 0  9995
2 47929  51.6401 126.8453 0001131 344.8176  15.2782 15.57399351 43862
HIROGARI (OPUSAT-II)    
1 47930U 98067SG  21355.91820771  .00070582  00000+0  79840-3 0  9996
2 47930  51.6390 123.2620 0001480 305.2426  54.8429 15.61785022 43961
GUARANISAT-1            
1 47931U 98067SH  21355.64910921  .00039163  00000+0  52759-3 0  9994
2 47931  51.6403 127.4682 0001143 343.5933  16.5022 15.57437579 43886
DIY-1 (ARDUIQUBE)       
1 47963U 21022AH  21356.43064662  .00009492  00000+0  60631-3 0  9996
2 47963  97.5453 255.4176 0020041  26.0032 334.2199 15.08694999 40223
